OBJECT_NAME,OBJECT_ID,EPOCH,MEAN_MOTION,ECCENTRICITY,INCLINATION,RA_OF_ASC_NODE,ARG_OF_PERICENTER,MEAN_ANOMALY,EPHEMERIS_TYPE,CLASSIFICATION_TYPE,NORAD_CAT_ID,ELEMENT_SET_NO,REV_AT_EPOCH,BSTAR,MEAN_MOTION_DOT,MEAN_MOTION_DDOT
BEIDOU-2 IGSO-5 (C10),2011-073A,2026-06-24T15:46:07.226112,1.00272136,.01142233,47.6633,271.4526,222.0346,107.5350,0,U,37948,999,5320,0,-.196E-5,0
LUCH 5A (SDCM/PRN 140),2011-074B,2026-07-02T16:08:29.436288,1.00272754,.00027005,8.7907,73.5828,42.8868,213.3031,0,U,37951,999,5320,0,-.43E-6,0
BEIDOU-2 G5 (C05),2012-008A,2026-07-01T21:09:04.605984,1.00277498,.00083902,3.6090,69.6120,275.6829,310.7210,0,U,38091,999,5251,0,.63E-6,0
BEIDOU-2 M3 (C11),2012-018A,2026-07-01T03:35:25.935072,1.86230135,.00204223,55.7448,304.4042,273.2421,86.5319,0,U,38250,999,9620,0,-.69E-6,0
BEIDOU-2 M4 (C12),2012-018B,2026-07-01T01:57:58.611168,1.86229794,.00115796,55.6447,303.6195,274.1308,85.7452,0,U,38251,999,9620,0,-.69E-6,0
SES-5 (EGNOS/PRN 136),2012-036A,2026-07-02T07:09:45.129600,1.00269964,.00022269,0.0453,319.6670,138.2860,294.8018,0,U,38652,999,4460,0,.44E-6,0
BEIDOU-2 M6 (C14),2012-050B,2026-07-01T07:53:08.797920,1.86231113,.00133635,56.5564,62.4269,359.0636,1.0007,0,U,38775,999,9357,0,-.42E-6,0
GSAT-10 (GAGAN/PRN 128),2012-051B,2026-07-02T14:22:40.414368,1.00270574,.00080873,0.0500,247.5027,205.6901,126.1257,0,U,38779,999,5025,0,-.154E-5,0
GPS BIIF-3  (PRN 24),2012-053A,2026-07-01T18:35:25.388160,2.00567786,.01811723,53.5881,143.0019,65.9876,295.8558,0,U,38833,999,9973,0,.33E-6,0
GSAT0103 (GALILEO-FM3),2012-055A,2026-06-29T19:03:19.372608,1.70473507,.00044239,55.8136,101.1997,307.4227,52.5245,0,U,38857,999,8522,0,-.25E-6,0
BEIDOU-2 G6 (C02),2012-059A,2026-07-02T16:13:10.480800,1.00270412,.00094578,4.4589,73.3611,329.8019,204.8591,0,U,38953,999,5006,0,-.167E-5,0
LUCH 5B (SDCM/PRN 125),2012-061A,2026-07-02T10:28:53.013216,1.00272686,.00029552,10.5152,49.7288,135.8864,235.8414,0,U,38977,999,4976,0,-.131E-5,0
COSMOS 2485 (747),2013-019A,2026-06-28T15:23:45.642336,2.13103400,.00228978,65.4258,73.2198,232.6425,127.1980,0,U,39155,999,10252,0,-.37E-6,0
GPS BIIF-4  (PRN 27),2013-023A,2026-07-01T03:26:30.540192,2.00563527,.01414308,54.4932,268.4048,51.0773,310.2414,0,U,39166,999,9616,0,-.8E-7,0
IRNSS-1A,2013-034A,2026-07-01T17:42:52.639200,1.00279201,.00179426,35.7520,63.6617,181.1700,355.7331,0,U,39199,999,4751,0,.64E-6,0
GPS BIIF-5  (PRN 30),2014-008A,2026-07-01T15:26:58.047360,2.00560783,.00842152,53.6565,148.7302,231.4494,127.7567,0,U,39533,999,8997,0,.38E-6,0
ASTRA 5B (EGNOS/PRN 123),2014-011B,2026-07-02T14:05:41.647776,1.00274557,.00022194,0.0777,302.3795,164.6740,48.5086,0,U,39617,999,4482,0,.148E-5,0
COSMOS 2492 (754),2014-012A,2026-07-01T21:14:38.547168,2.13103546,.00102409,65.2886,313.4363,321.2365,38.6908,0,U,39620,999,9555,0,-.51E-6,0
IRNSS-1B,2014-017A,2026-07-01T17:42:45.150912,1.00271492,.00228668,28.8995,240.1518,193.7568,166.6239,0,U,39635,999,4494,0,.145E-5,0
LUCH 5V (SDCM/PRN 141),2014-023A,2026-07-02T16:19:31.353600,1.00269979,.00026391,5.1693,69.5920,56.6541,134.0924,0,U,39727,999,4451,0,-.26E-5,0
GPS BIIF-6  (PRN 06),2014-026A,2026-07-02T10:02:00.600864,2.00560005,.00381078,56.4903,330.9249,326.1840,33.5696,0,U,39741,999,8884,0,-.77E-6,0
COSMOS 2500 (755),2014-032A,2026-07-01T14:03:05.784768,2.13106189,.00078124,65.2235,313.1924,187.4639,172.5247,0,U,40001,999,9376,0,-.53E-6,0
GPS BIIF-7  (PRN 09),2014-045A,2026-07-01T12:18:16.604352,2.00559971,.00338619,55.3618,87.8943,118.3379,242.0338,0,U,40105,999,8636,0,-.21E-6,0
GSAT0201 (GALILEO 5),2014-050A,2026-06-29T06:35:26.939040,1.85520280,.16762517,48.8619,272.9404,179.8513,180.2703,0,U,40128,999,7854,0,-.39E-6,0
GSAT0202 (GALILEO 6),2014-050B,2026-06-30T14:35:38.438592,1.85520713,.16776984,48.8773,271.9714,180.6428,179.1780,0,U,40129,999,8073,0,-.31E-6,0
IRNSS-1C,2014-061A,2026-07-02T10:59:11.403168,1.00274356,.00220982,6.5556,88.6400,4.1351,75.4832,0,U,40269,999,4284,0,-.155E-5,0
GPS BIIF-8  (PRN 03),2014-068A,2026-06-30T21:11:23.477568,2.00577197,.00673114,56.9970,30.4273,71.0884,289.7026,0,U,40294,999,8548,0,-.62E-6,0
COSMOS 2501 (702K),2014-075A,2026-06-30T10:33:31.413888,2.13101453,.00226357,63.6170,189.9132,212.5837,147.3119,0,U,40315,999,9013,0,.79E-6,0
GPS BIIF-9  (PRN 26),2015-013A,2026-07-01T12:31:41.786688,2.00550585,.01099114,53.1671,203.5847,40.2564,320.6065,0,U,40534,999,8211,0,.67E-6,0
GSAT0203 (GALILEO 7),2015-017A,2026-07-01T06:58:44.031360,1.70476409,.00022941,56.7819,341.2117,263.0128,96.9526,0,U,40544,999,6944,0,-.82E-6,0
GSAT0204 (GALILEO 8),2015-017B,2026-06-30T08:57:46.055808,1.70475898,.0002318,56.7889,341.2552,237.2395,122.7292,0,U,40545,999,3247,0,-.85E-6,0
